[{"OBJECT_NAME":"STARLINK-37165","OBJECT_ID":"2026-055AB","EPOCH":"2026-04-02T20:00:01.999008","MEAN_MOTION":15.82219668,"ECCENTRICITY":0.0001086,"INCLINATION":53.1583,"RA_OF_ASC_NODE":216.0712,"ARG_OF_PERICENTER":82.9804,"MEAN_ANOMALY":260.4624,"EPHEMERIS_TYPE":0,"CLASSIFICATION_TYPE":"U","NORAD_CAT_ID":68287,"ELEMENT_SET_NO":999,"REV_AT_EPOCH":351,"BSTAR":-0.0080263,"MEAN_MOTION_DOT":-0.01490271,"MEAN_MOTION_DDOT":0},{"OBJECT_NAME":"STARLINK-37016","OBJECT_ID":"2026-055AC","EPOCH":"2026-04-02T20:00:01.999008","MEAN_MOTION":15.82432884,"ECCENTRICITY":0.0001032,"INCLINATION":53.1579,"RA_OF_ASC_NODE":216.0899,"ARG_OF_PERICENTER":58.579,"MEAN_ANOMALY":276.0748,"EPHEMERIS_TYPE":0,"CLASSIFICATION_TYPE":"U","NORAD_CAT_ID":68288,"ELEMENT_SET_NO":999,"REV_AT_EPOCH":351,"BSTAR":-0.0086464,"MEAN_MOTION_DOT":-0.0160488,"MEAN_MOTION_DDOT":0},{"OBJECT_NAME":"STARLINK-37010","OBJECT_ID":"2026-055AD","EPOCH":"2026-04-02T20:00:01.999008","MEAN_MOTION":15.82234673,"ECCENTRICITY":8.69e-5,"INCLINATION":53.1583,"RA_OF_ASC_NODE":216.0622,"ARG_OF_PERICENTER":83.3646,"MEAN_ANOMALY":264.3411,"EPHEMERIS_TYPE":0,"CLASSIFICATION_TYPE":"U","NORAD_CAT_ID":68289,"ELEMENT_SET_NO":999,"REV_AT_EPOCH":351,"BSTAR":-0.0081081,"MEAN_MOTION_DOT":-0.01504449,"MEAN_MOTION_DDOT":0},{"OBJECT_NAME":"STARLINK-37151","OBJECT_ID":"2026-055AE","EPOCH":"2026-04-02T20:00:01.999008","MEAN_MOTION":15.82310112,"ECCENTRICITY":7.29e-5,"INCLINATION":53.1582,"RA_OF_ASC_NODE":216.0534,"ARG_OF_PERICENTER":64.9379,"MEAN_ANOMALY":286.9624,"EPHEMERIS_TYPE":0,"CLASSIFICATION_TYPE":"U","NORAD_CAT_ID":68290,"ELEMENT_SET_NO":999,"REV_AT_EPOCH":351,"BSTAR":-0.0083947,"MEAN_MOTION_DOT":-0.01555836,"MEAN_MOTION_DDOT":0},{"OBJECT_NAME":"STRIX-6","OBJECT_ID":"2026-056A","EPOCH":"2026-04-02T10:39:04.218912","MEAN_MOTION":14.99664642,"ECCENTRICITY":0.0016548,"INCLINATION":50.2843,"RA_OF_ASC_NODE":347.7052,"ARG_OF_PERICENTER":313.6986,"MEAN_ANOMALY":46.2591,"EPHEMERIS_TYPE":0,"CLASSIFICATION_TYPE":"U","NORAD_CAT_ID":68291,"ELEMENT_SET_NO":999,"REV_AT_EPOCH":190,"BSTAR":0.00056757326,"MEAN_MOTION_DOT":6.84e-5,"MEAN_MOTION_DDOT":0},{"OBJECT_NAME":"ELECTRON KICK STAGE R/B","OBJECT_ID":"2026-056C","EPOCH":"2026-04-02T16:50:59.513280","MEAN_MOTION":15.40667472,"ECCENTRICITY":0.0154104,"INCLINATION":50.2917,"RA_OF_ASC_NODE":342.6414,"ARG_OF_PERICENTER":63.4517,"MEAN_ANOMALY":298.2153,"EPHEMERIS_TYPE":0,"CLASSIFICATION_TYPE":"U","NORAD_CAT_ID":68293,"ELEMENT_SET_NO":999,"REV_AT_EPOCH":200,"BSTAR":0.0016608,"MEAN_MOTION_DOT":0.00106833,"MEAN_MOTION_DDOT":0},{"OBJECT_NAME":"STARLINK-37107","OBJECT_ID":"2026-057A","EPOCH":"2026-04-02T20:00:01.999008","MEAN_MOTION":15.89356468,"ECCENTRICITY":0.0001527,"INCLINATION":97.2808,"RA_OF_ASC_NODE":216.3528,"ARG_OF_PERICENTER":79.126,"MEAN_ANOMALY":40.9576,"EPHEMERIS_TYPE":0,"CLASSIFICATION_TYPE":"U","NORAD_CAT_ID":68294,"ELEMENT_SET_NO":999,"REV_AT_EPOCH":304,"BSTAR":-0.005014,"MEAN_MOTION_DOT":-0.01435486,"MEAN_MOTION_DDOT":0.00057297},{"OBJECT_NAME":"STARLINK-37147","OBJECT_ID":"2026-057B","EPOCH":"2026-04-02T20:00:01.999008","MEAN_MOTION":15.89432062,"ECCENTRICITY":0.0001444,"INCLINATION":97.2803,"RA_OF_ASC_NODE":216.3537,"ARG_OF_PERICENTER":71.4651,"MEAN_ANOMALY":52.3846,"EPHEMERIS_TYPE":0,"CLASSIFICATION_TYPE":"U","NORAD_CAT_ID":68295,"ELEMENT_SET_NO":999,"REV_AT_EPOCH":303,"BSTAR":-0.0051004,"MEAN_MOTION_DOT":-0.01465401,"MEAN_MOTION_DDOT":0.0005957},{"OBJECT_NAME":"STARLINK-37142","OBJECT_ID":"2026-057C","EPOCH":"2026-04-02T20:00:01.999008","MEAN_MOTION":15.89556846,"ECCENTRICITY":0.0001515,"INCLINATION":97.2795,"RA_OF_ASC_NODE":216.3588,"ARG_OF_PERICENTER":71.1051,"MEAN_ANOMALY":65.0136,"EPHEMERIS_TYPE":0,"CLASSIFICATION_TYPE":"U","NORAD_CAT_ID":68296,"ELEMENT_SET_NO":999,"REV_AT_EPOCH":292,"BSTAR":-0.0051933,"MEAN_MOTION_DOT":-0.01501053,"MEAN_MOTION_DDOT":0.00062356},{"OBJECT_NAME":"STARLINK-37115","OBJECT_ID":"2026-057D","EPOCH":"2026-04-02T20:00:01.999008","MEAN_MOTION":15.89510795,"ECCENTRICITY":0.0001471,"INCLINATION":97.2793,"RA_OF_ASC_NODE":216.356,"ARG_OF_PERICENTER":75.6035,"MEAN_ANOMALY":56.6311,"EPHEMERIS_TYPE":0,"CLASSIFICATION_TYPE":"U","NORAD_CAT_ID":68297,"ELEMENT_SET_NO":999,"REV_AT_EPOCH":292,"BSTAR":-0.0052273,"MEAN_MOTION_DOT":-0.01507325,"MEAN_MOTION_DDOT":0.00062811},{"OBJECT_NAME":"STARLINK-36355","OBJECT_ID":"2026-057E","EPOCH":"2026-04-02T20:00:01.999008","MEAN_MOTION":15.89491326,"ECCENTRICITY":0.0001339,"INCLINATION":97.2799,"RA_OF_ASC_NODE":216.3549,"ARG_OF_PERICENTER":84.829,"MEAN_ANOMALY":42.9345,"EPHEMERIS_TYPE":0,"CLASSIFICATION_TYPE":"U","NORAD_CAT_ID":68298,"ELEMENT_SET_NO":999,"REV_AT_EPOCH":319,"BSTAR":-0.0051502,"MEAN_MOTION_DOT":-0.01483881,"MEAN_MOTION_DDOT":0.00061003},{"OBJECT_NAME":"STARLINK-37118","OBJECT_ID":"2026-057F","EPOCH":"2026-04-02T20:00:01.999008","MEAN_MOTION":15.89626401,"ECCENTRICITY":0.0001486,"INCLINATION":97.2787,"RA_OF_ASC_NODE":216.3617,"ARG_OF_PERICENTER":80.493,"MEAN_ANOMALY":64.0549,"EPHEMERIS_TYPE":0,"CLASSIFICATION_TYPE":"U","NORAD_CAT_ID":68299,"ELEMENT_SET_NO":999,"REV_AT_EPOCH":303,"BSTAR":-0.0052637,"MEAN_MOTION_DOT":-0.01526422,"MEAN_MOTION_DDOT":0.00064364},{"OBJECT_NAME":"STARLINK-36875","OBJECT_ID":"2026-057G","EPOCH":"2026-04-02T20:00:01.999008","MEAN_MOTION":15.89573098,"ECCENTRICITY":0.0001538,"INCLINATION":97.2792,"RA_OF_ASC_NODE":216.3601,"ARG_OF_PERICENTER":77.7676,"MEAN_ANOMALY":62.9297,"EPHEMERIS_TYPE":0,"CLASSIFICATION_TYPE":"U","NORAD_CAT_ID":68300,"ELEMENT_SET_NO":999,"REV_AT_EPOCH":309,"BSTAR":-0.0052809,"MEAN_MOTION_DOT":-0.01527342,"MEAN_MOTION_DDOT":0.00064403},{"OBJECT_NAME":"STARLINK-37099","OBJECT_ID":"2026-057H","EPOCH":"2026-04-02T20:00:01.999008","MEAN_MOTION":15.89624846,"ECCENTRICITY":0.0001561,"INCLINATION":97.2784,"RA_OF_ASC_NODE":216.3641,"ARG_OF_PERICENTER":78.4629,"MEAN_ANOMALY":70.8361,"EPHEMERIS_TYPE":0,"CLASSIFICATION_TYPE":"U","NORAD_CAT_ID":68301,"ELEMENT_SET_NO":999,"REV_AT_EPOCH":292,"BSTAR":-0.0053178,"MEAN_MOTION_DOT":-0.01541826,"MEAN_MOTION_DDOT":0.00065571},{"OBJECT_NAME":"STARLINK-37007","OBJECT_ID":"2026-057J","EPOCH":"2026-04-02T20:00:01.999008","MEAN_MOTION":15.89621134,"ECCENTRICITY":0.0001503,"INCLINATION":97.2775,"RA_OF_ASC_NODE":216.3675,"ARG_OF_PERICENTER":75.6568,"MEAN_ANOMALY":83.068,"EPHEMERIS_TYPE":0,"CLASSIFICATION_TYPE":"U","NORAD_CAT_ID":68302,"ELEMENT_SET_NO":999,"REV_AT_EPOCH":314,"BSTAR":-0.005358,"MEAN_MOTION_DOT":-0.01553066,"MEAN_MOTION_DDOT":0.00066457},{"OBJECT_NAME":"STARLINK-36300","OBJECT_ID":"2026-057K","EPOCH":"2026-04-02T20:00:01.999008","MEAN_MOTION":15.89599502,"ECCENTRICITY":0.0001602,"INCLINATION":97.2779,"RA_OF_ASC_NODE":216.3658,"ARG_OF_PERICENTER":76.7143,"MEAN_ANOMALY":77.54,"EPHEMERIS_TYPE":0,"CLASSIFICATION_TYPE":"U","NORAD_CAT_ID":68303,"ELEMENT_SET_NO":999,"REV_AT_EPOCH":319,"BSTAR":-0.0053117,"MEAN_MOTION_DOT":-0.0153816,"MEAN_MOTION_DDOT":0.00065266}]
