STARLINK-37165          
1 68287U 26055AB  26092.83335647 -.01490271  00000+0 -80263-2 0  9993
2 68287  53.1583 216.0712 0001086  82.9804 260.4624 15.82219668  3514
STARLINK-37016          
1 68288U 26055AC  26092.83335647 -.01604880  00000+0 -86464-2 0  9996
2 68288  53.1579 216.0899 0001032  58.5790 276.0748 15.82432884  3517
STARLINK-37010          
1 68289U 26055AD  26092.83335647 -.01504449  00000+0 -81081-2 0  9997
2 68289  53.1583 216.0622 0000869  83.3646 264.3411 15.82234673  3513
STARLINK-37151          
1 68290U 26055AE  26092.83335647 -.01555836  00000+0 -83947-2 0  9998
2 68290  53.1582 216.0534 0000729  64.9379 286.9624 15.82310112  3518
STRIX-6                 
1 68291U 26056A   26092.44379883  .00006840  00000+0  56757-3 0  9990
2 68291  50.2843 347.7052 0016548 313.6986  46.2591 14.99664642  1906
ELECTRON KICK STAGE R/B 
1 68293U 26056C   26092.70207770  .00106833  00000+0  16608-2 0  9999
2 68293  50.2917 342.6414 0154104  63.4517 298.2153 15.40667472  2003
STARLINK-37107          
1 68294U 26057A   26092.83335647 -.01435486  57297-3 -50140-2 0  9995
2 68294  97.2808 216.3528 0001527  79.1260  40.9576 15.89356468  3045
STARLINK-37147          
1 68295U 26057B   26092.83335647 -.01465401  59570-3 -51004-2 0  9992
2 68295  97.2803 216.3537 0001444  71.4651  52.3846 15.89432062  3039
STARLINK-37142          
1 68296U 26057C   26092.83335647 -.01501053  62356-3 -51933-2 0  9994
2 68296  97.2795 216.3588 0001515  71.1051  65.0136 15.89556846  2923
STARLINK-37115          
1 68297U 26057D   26092.83335647 -.01507325  62811-3 -52273-2 0  9997
2 68297  97.2793 216.3560 0001471  75.6035  56.6311 15.89510795  2928
STARLINK-36355          
1 68298U 26057E   26092.83335647 -.01483881  61003-3 -51502-2 0  9994
2 68298  97.2799 216.3549 0001339  84.8290  42.9345 15.89491326  3193
STARLINK-37118          
1 68299U 26057F   26092.83335647 -.01526422  64364-3 -52637-2 0  9997
2 68299  97.2787 216.3617 0001486  80.4930  64.0549 15.89626401  3031
STARLINK-36875          
1 68300U 26057G   26092.83335647 -.01527342  64403-3 -52809-2 0  9997
2 68300  97.2792 216.3601 0001538  77.7676  62.9297 15.89573098  3093
STARLINK-37099          
1 68301U 26057H   26092.83335647 -.01541826  65571-3 -53178-2 0  9998
2 68301  97.2784 216.3641 0001561  78.4629  70.8361 15.89624846  2920
STARLINK-37007          
1 68302U 26057J   26092.83335647 -.01553066  66457-3 -53580-2 0  9999
2 68302  97.2775 216.3675 0001503  75.6568  83.0680 15.89621134  3147
STARLINK-36300          
1 68303U 26057K   26092.83335647 -.01538160  65266-3 -53117-2 0  9991
2 68303  97.2779 216.3658 0001602  76.7143  77.5400 15.89599502  3190
